      2.10          N: GNSS NAV DATA                        RINEX VERSION / TYPE
fic2rin                                 06/11/2023 00:17:53 PGM / RUN BY / DATE
                                                            END OF HEADER
2  23  6 10  1 59 44.0 -.587233807892D-03  .352429196937D-11  .000000000000D+00
     .230000000000D+02  .696562500000D+02  .420946105524D-08  .295251152905D+01
     .339187681675D-05  .159199932823D-01  .678934156895D-05  .515356499290D+04
     .525584000000D+06  .247731804848D-06  .204282058919D+01  .521540641785D-07
     .967340007788D+00  .249031250000D+03 -.138598274203D+01 -.779175312922D-08
     .199651173416D-09  .100000000000D+01  .226500000000D+04  .000000000000D+00
     .240000000000D+01  .000000000000D+00 -.176951289177D-07  .230000000000D+02
     .518400000000D+06  .400000000000D+01
29 23  6 10 22  0  0.0 -.602389685810D-03 -.113686837722D-11  .000000000000D+00
     .630000000000D+02 -.715625000000D+01  .410445668138D-08  .497527250361D+00
    -.340864062309D-06  .257656723261D-02  .792182981968D-05  .515375796127D+04
     .597600000000D+06  .186264514923D-07  .115186936220D+01  .745058059692D-08
     .976259128197D+00  .233218750000D+03  .242031112479D+01 -.795676000242D-08
    -.175721605224D-09  .100000000000D+01  .226500000000D+04  .000000000000D+00
     .240000000000D+01  .000000000000D+00 -.102445483208D-07  .630000000000D+02
     .590400000000D+06  .400000000000D+01
32 23  6 10 22  0  0.0 -.497325323522D-03 -.852651282912D-11  .000000000000D+00
     .410000000000D+02 -.749687500000D+02  .469519557374D-08  .107187641646D+01
    -.381842255592D-05  .693956727628D-02  .855699181557D-05  .515375532722D+04
     .597600000000D+06 -.670552253723D-07 -.207475133345D+01  .122934579849D-06
     .959632187938D+00  .217437500000D+03 -.220228716669D+01 -.825605818368D-08
    -.357872049664D-09  .100000000000D+01  .226500000000D+04  .000000000000D+00
     .240000000000D+01  .000000000000D+00  .465661287308D-09  .410000000000D+02
     .590400000000D+06  .400000000000D+01
16 23  6 10 22  0  0.0 -.492746941745D-03  .375166564481D-11  .000000000000D+00
     .600000000000D+02  .340000000000D+02  .465947980032D-08  .134838170535D+01
     .177696347237D-05  .133073119214D-01  .612623989582D-05  .515360477638D+04
     .597600000000D+06 -.182539224625D-06  .116913883510D+00  .242143869400D-07
     .965291078374D+00  .267468750000D+03  .789689433163D+00 -.833427572747D-08
    -.120004998690D-09  .100000000000D+01  .226500000000D+04  .000000000000D+00
     .240000000000D+01  .000000000000D+00 -.102445483208D-07  .600000000000D+02
     .590400000000D+06  .400000000000D+01
30 23  6 10 22  0  0.0 -.511844642460D-03  .238742359215D-11  .000000000000D+00
     .570000000000D+02  .984375000000D+01  .491770484215D-08 -.250106862810D+01
     .443309545517D-06  .655056571122D-02  .105369836092D-04  .515358581161D+04
     .597600000000D+06  .298023223877D-07 -.100999233529D+01 -.819563865662D-07
     .935236582140D+00  .161812500000D+03 -.257425159655D+01 -.809676583423D-08
     .143577409147D-09  .100000000000D+01  .226500000000D+04  .000000000000D+00
     .240000000000D+01  .000000000000D+00  .372529029846D-08  .570000000000D+02
     .590400000000D+06  .400000000000D+01
20 23  6 10 22  0  0.0  .428711064160D-03 -.204636307899D-11  .000000000000D+00
     .300000000000D+02  .840625000000D+01  .514807158070D-08 -.940095513860D+00
     .551342964172D-06  .404861406423D-02  .487640500069D-05  .515356088066D+04
     .597600000000D+06  .149011611938D-07  .300209435488D+01  .409781932831D-07
     .949010791183D+00  .279593750000D+03 -.288018174174D+01 -.850249702027D-08
     .295726603914D-09  .100000000000D+01  .226500000000D+04  .000000000000D+00
     .240000000000D+01  .000000000000D+00 -.838190317154D-08  .300000000000D+02
     .590400000000D+06  .400000000000D+01
26 23  6 10 22  0  0.0  .239311251789D-03 -.795807864051D-12  .000000000000D+00
     .380000000000D+02  .444375000000D+02  .533772233756D-08  .226467984158D+01
     .226125121117D-05  .791555270553D-02  .587292015553D-05  .515369659996D+04
     .597600000000D+06 -.117346644402D-06 -.396835810262D-01 -.372529029846D-07
     .934056334944D+00  .252375000000D+03  .464369220236D+00 -.854714173705D-08
     .646455498895D-10  .100000000000D+01  .226500000000D+04  .000000000000D+00
     .240000000000D+01  .000000000000D+00  .698491930962D-08  .380000000000D+02
     .590400000000D+06  .400000000000D+01
24 23  6 10 22  0  0.0 -.220404006541D-03 -.131876731757D-10  .000000000000D+00
     .950000000000D+02  .137187500000D+02  .495199198463D-08 -.144984011683D+01
     .676140189171D-06  .139210725902D-01  .102315098047D-04  .515365058708D+04
     .597600000000D+06  .387430191040D-06 -.110682787736D+01  .558793544769D-08
     .933655021405D+00  .167718750000D+03  .895935087521D+00 -.811712382507D-08
    -.253581991279D-10  .100000000000D+01  .226500000000D+04  .000000000000D+00
     .240000000000D+01  .000000000000D+00  .279396772385D-08  .950000000000D+02
     .590400000000D+06  .400000000000D+01
17 23  6 10 22  0  0.0  .717946328223D-03  .125055521494D-11  .000000000000D+00
     .950000000000D+02 -.149062500000D+02  .427839249793D-08  .367702043946D+00
    -.910833477974D-06  .135037984001D-01  .785849988461D-05  .515377832794D+04
     .597600000000D+06 -.150874257088D-06  .113775002006D+01 -.184401869774D-06
     .974002951567D+00  .233562500000D+03 -.140588215103D+01 -.826141554969D-08
    -.277868717205D-09  .100000000000D+01  .226500000000D+04  .000000000000D+00
     .340000000000D+01  .000000000000D+00 -.111758708954D-07  .950000000000D+02
     .590400000000D+06  .400000000000D+01
25 23  6 10 22  0  0.0  .448944512755D-03  .250111042988D-11  .000000000000D+00
     .840000000000D+02  .428437500000D+02  .470091009749D-08  .297218918162D+01
     .220537185669D-05  .110763956327D-01  .546127557755D-05  .515372089958D+04
     .597600000000D+06  .763684511185D-07  .162321454826D-01 -.707805156708D-07
     .953297050454D+00  .268312500000D+03  .105235479873D+01 -.807676500111D-08
     .753602819154D-10  .100000000000D+01  .226500000000D+04  .000000000000D+00
     .240000000000D+01  .000000000000D+00  .558793544769D-08  .840000000000D+02
     .590400000000D+06  .400000000000D+01
13 23  6 10 22  0  0.0  .532254576683D-03  .511590769747D-11  .000000000000D+00
     .880000000000D+02 -.663125000000D+02  .445232831449D-08  .552450604928D-01
    -.334344804287D-05  .702383823227D-02  .847317278385D-05  .515367161369D+04
     .597600000000D+06 -.372529029846D-07 -.192745923334D+01  .577419996262D-07
     .969614503079D+00  .217125000000D+03  .908888935992D+00 -.814033907780D-08
    -.287511976028D-09  .100000000000D+01  .226500000000D+04  .000000000000D+00
     .240000000000D+01  .000000000000D+00 -.111758708954D-07  .880000000000D+02
     .590400000000D+06  .400000000000D+01
11 23  6 10 22  0  0.0 -.230518635362D-03 -.148929757415D-10  .000000000000D+00
     .209000000000D+03  .267187500000D+02  .443018453497D-08 -.108333953824D+00
     .150687992573D-05  .883798464201D-03  .846385955811D-05  .515376165581D+04
     .597600000000D+06 -.149011611938D-07  .217386898383D+01 -.149011611938D-07
     .965362168878D+00  .220781250000D+03 -.290010094110D+01 -.803604901941D-08
     .218580533328D-09  .100000000000D+01  .226500000000D+04  .000000000000D+00
     .240000000000D+01  .000000000000D+00 -.884756445885D-08  .465000000000D+03
     .590400000000D+06  .400000000000D+01
23 23  6 10 22  0  0.0  .319918617606D-04  .352429196937D-11  .000000000000D+00
     .100000000000D+01 -.100312500000D+02  .457304762865D-08 -.263098780359D+01
    -.478699803352D-06  .323499913793D-02  .469014048576D-05  .515365682793D+04
     .597600000000D+06 -.540167093277D-07  .314156441927D+01 -.614672899246D-07
     .974363727646D+00  .297125000000D+03 -.309970114736D+01 -.816891169653D-08
     .128933942045D-09  .100000000000D+01  .226500000000D+04  .000000000000D+00
     .240000000000D+01  .000000000000D+00 -.838190317154D-08  .257000000000D+03
     .590400000000D+06  .400000000000D+01
28 23  6 10 22  0  0.0  .828709453344D-04  .113686837722D-11  .000000000000D+00
     .100000000000D+02  .250312500000D+02  .434303804782D-08  .234561360456D+01
     .129640102386D-05  .662519712932D-03  .110473483801D-04  .515369540596D+04
     .597600000000D+06  .353902578354D-07 -.105306746513D+01  .128522515297D-06
     .961239201985D+00  .166687500000D+03  .170918352459D+01 -.789497171440D-08
     .134291308058D-09  .100000000000D+01  .226500000000D+04  .000000000000D+00
     .240000000000D+01  .000000000000D+00 -.977888703346D-08  .778000000000D+03
     .590400000000D+06  .400000000000D+01
18 23  6 10 22  0  0.0 -.302493572235D-03 -.151203494170D-10  .000000000000D+00
     .186000000000D+03  .390000000000D+02  .424481967092D-08 -.157888981281D+01
     .177696347237D-05  .329305394553D-02  .843778252602D-05  .515367147064D+04
     .597600000000D+06  .745058059692D-08  .214197936512D+01 -.167638063431D-07
     .973809281694D+00  .225531250000D+03  .311997004558D+01 -.795747431789D-08
     .262868092368D-09  .100000000000D+01  .226500000000D+04  .000000000000D+00
     .240000000000D+01  .000000000000D+00 -.838190317154D-08  .954000000000D+03
     .590400000000D+06  .400000000000D+01
14 23  6 10 22  0  0.0  .864318571985D-04  .123918653117D-10  .000000000000D+00
     .124000000000D+03  .479062500000D+02  .490913305653D-08  .313300079234D+01
     .261329114437D-05  .324654194992D-02  .605545938015D-05  .515367475319D+04
     .597600000000D+06 -.353902578354D-07  .598094746190D-01 -.745058059692D-08
     .948945438244D+00  .255937500000D+03 -.300778822369D+01 -.830748889740D-08
     .121076471892D-09  .100000000000D+01  .226500000000D+04  .000000000000D+00
     .240000000000D+01  .000000000000D+00 -.791624188423D-08  .636000000000D+03
     .590400000000D+06  .400000000000D+01
